H1 CPF 01  gfz 2021 08 28 12  7401 tandemx   
H2 1003001  6202 36605    2021 08 28 12 59 42 2021 09 02 00 00 42   120 1 1  0 0 0
H9
10 0 59456  23022.000000  0    5664166.814  -1049041.867  -3786608.440
10 0 59456  23142.000000  0    5094503.854  -1133389.054  -4504466.463
10 0 59456  23262.000000  0    4435043.914  -1187272.413  -5143440.821
10 0 59456  23382.000000  0    3697890.517  -1208311.091  -5692436.590
10 0 59456  23502.000000  0    2896500.772  -1194918.633  -6141947.652
10 0 59456  23622.000000  0    2045433.985  -1146349.016  -6484209.960
10 0 59456  23742.000000  0    1160085.395  -1062723.365  -6713324.496
10 0 59456  23862.000000  0     256409.521   -945039.025  -6825348.695
10 0 59456  23982.000000  0    -649362.858   -795159.228  -6818356.848
10 0 59456  24102.000000  0   -1541009.219   -615784.170  -6692469.359
10 0 59456  24222.000000  0   -2402599.540   -410403.377  -6449850.938
10 0 59456  24342.000000  0   -3218774.232   -183230.495  -6094676.101
10 0 59456  24462.000000  0   -3975012.476     60878.703  -5633065.896
10 0 59456  24582.000000  0   -4657890.750    316524.391  -5072993.348
10 0 59456  24702.000000  0   -5255323.638    577874.561  -4424157.048
10 0 59456  24822.000000  0   -5756785.524    838789.959  -3697825.479
10 0 59456  24942.000000  0   -6153506.821   1092960.065  -2906650.278
10 0 59456  25062.000000  0   -6438639.667   1334046.392  -2064451.785
10 0 59456  25182.000000  0   -6607388.873   1555829.693  -1185980.090
10 0 59456  25302.000000  0   -6657105.204   1752358.889   -286654.792
10 0 59456  25422.000000  0   -6587335.203   1918095.722    617712.230
10 0 59456  25542.000000  0   -6399826.675   2048052.862   1511201.971
10 0 59456  25662.000000  0   -6098490.764   2137922.327   2378077.223
10 0 59456  25782.000000  0   -5689319.816   2184190.012   3203068.881
10 0 59456  25902.000000  0   -5180263.384   2184232.555   3971652.830
10 0 59456  26022.000000  0   -4581065.511   2136394.671   4670310.399
10 0 59456  26142.000000  0   -3903069.300   2040045.692   5286767.162
10 0 59456  26262.000000  0   -3158994.180   1895614.229   5810207.156
10 0 59456  26382.000000  0   -2362689.635   1704600.620   6231460.335
10 0 59456  26502.000000  0   -1528869.855   1469565.784   6543158.138
10 0 59456  26622.000000  0    -672837.033   1194097.254   6739855.492
10 0 59456  26742.000000  0     189800.652    882753.959   6818118.977
10 0 59456  26862.000000  0    1043412.809    540990.201   6776582.837
10 0 59456  26982.000000  0    1872628.820    175060.350   6615971.182
10 0 59456  27102.000000  0    2662613.388   -208094.746   6339086.761
10 0 59456  27222.000000  0    3399332.462   -600978.479   5950766.386
10 0 59456  27342.000000  0    4069805.345   -995683.402   5457801.326
10 0 59456  27462.000000  0    4662337.654  -1384049.045   4868824.288
10 0 59456  27582.000000  0    5166731.464  -1757829.103   4194164.316
10 0 59456  27702.000000  0    5574469.722  -2108864.425   3445670.263
10 0 59456  27822.000000  0    5878869.196  -2429259.497   2636504.005
10 0 59456  27942.000000  0    6075197.386  -2711557.404   1780907.633
10 0 59456  28062.000000  0    6160752.129  -2948908.545    893949.573
10 0 59456  28182.000000  0    6134901.256  -3135230.050     -8747.913
10 0 59456  28302.000000  0    5999079.359  -3265350.486   -911292.085
10 0 59456  28422.000000  0    5756743.182  -3335136.678  -1797809.573
10 0 59456  28542.000000  0    5413284.566  -3341598.356  -2652733.461
10 0 59456  28662.000000  0    4975907.213  -3282969.564  -3461082.116
10 0 59456  28782.000000  0    4453468.566  -3158764.552  -4208724.469
10 0 59456  28902.000000  0    3856292.121  -2969807.720  -4882626.340
10 0 59456  29022.000000  0    3195954.149  -2718235.780  -5471072.892
10 0 59456  29142.000000  0    2485052.636  -2407473.891  -5963862.715
10 0 59456  29262.000000  0    1736964.376  -2042188.202  -6352474.328
10 0 59456  29382.000000  0     965591.947  -1628213.458  -6630204.244
10 0 59456  29502.000000  0     185106.096  -1172457.361  -6792271.430
10 0 59456  29622.000000  0    -590310.439   -682785.632  -6835890.147
10 0 59456  29742.000000  0   -1346714.461   -167888.645  -6760311.998
10 0 59456  29862.000000  0   -2070647.401    362869.245  -6566837.087
10 0 59456  29982.000000  0   -2749369.034    899615.467  -6258793.301
10 0 59456  30102.000000  0   -3371076.979   1432147.831  -5841485.572
10 0 59456  30222.000000  0   -3925110.816   1950123.752  -5322115.100
10 0 59456  30342.000000  0   -4402138.192   2443258.013  -4709666.997
10 0 59456  30462.000000  0   -4794317.577   2901525.977  -4014765.297
10 0 59456  30582.000000  0   -5095434.064   3315366.435  -3249498.329
10 0 59456  30702.000000  0   -5301007.028   3675881.901  -2427216.949
10 0 59456  30822.000000  0   -5408364.945   3975031.467  -1562305.506
10 0 59456  30942.000000  0   -5416686.026   4205810.426   -669930.615
10 0 59456  31062.000000  0   -5327002.262   4362412.461    234228.490
10 0 59456  31182.000000  0   -5142166.150   4440370.442   1134262.781
10 0 59456  31302.000000  0   -4866778.972   4436669.624   2014323.007
10 0 59456  31422.000000  0   -4507083.674   4349831.494   2858907.733
10 0 59456  31542.000000  0   -4070824.948   4179967.233   3653144.123
10 0 59456  31662.000000  0   -3567080.532   3928797.982   4383055.846
10 0 59456  31782.000000  0   -3006068.830   3599642.142   5035812.138
10 0 59456  31902.000000  0   -2398936.686   3197370.212   5599954.010
10 0 59456  32022.000000  0   -1757532.765   2728328.892   6065592.919
10 0 59456  32142.000000  0   -1094171.665   2200236.086   6424579.267
10 0 59456  32262.000000  0    -421394.912   1622049.135   6670637.330
10 0 59456  32382.000000  0     248265.553   1003810.489   6799469.144
10 0 59456  32502.000000  0     902520.789    356471.844   6808824.929
10 0 59456  32622.000000  0    1529549.282   -308299.339   6698539.605
10 0 59456  32742.000000  0    2118209.664   -978329.428   6470536.367
10 0 59456  32862.000000  0    2658238.487  -1641160.925   6128795.553
10 0 59456  32982.000000  0    3140431.057  -2284283.698   5679290.539
10 0 59456  33102.000000  0    3556801.442  -2895372.203   5129888.631
10 0 59456  33222.000000  0    3900718.716  -3462523.756   4490219.522
10 0 59456  33342.000000  0    4167017.265  -3974494.095   3771511.420
10 0 59456  33462.000000  0    4352078.409  -4420925.139   2986396.785
10 0 59456  33582.000000  0    4453881.611  -4792559.750   2148690.557
10 0 59456  33702.000000  0    4472023.475  -5081437.607   1273143.727
10 0 59456  33822.000000  0    4407703.122  -5281067.545    375177.744
10 0 59456  33942.000000  0    4263674.295  -5386571.228   -529394.513
10 0 59456  34062.000000  0    4044167.403  -5394796.117  -1424655.340
10 0 59456  34182.000000  0    3754780.365  -5304393.186  -2294871.846
10 0 59456  34302.000000  0    3402342.853  -5115857.462  -3124779.136
10 0 59456  34422.000000  0    2994757.814  -4831531.171  -3899852.888
10 0 59456  34542.000000  0    2540823.646  -4455570.505  -4606564.392
10 0 59456  34662.000000  0    2050042.426  -3993876.692  -5232613.904
10 0 59456  34782.000000  0    1532420.070  -3453993.456  -5767136.900
10 0 59456  34902.000000  0     998262.869  -2844976.523  -6200882.306
10 0 59456  35022.000000  0     457973.363  -2177236.775  -6526362.201
10 0 59456  35142.000000  0     -78150.025  -1462358.900  -6737970.214
10 0 59456  35262.000000  0    -600104.906   -712899.944  -6832067.840
10 0 59456  35382.000000  0   -1098366.187     57828.444  -6807039.713
10 0 59456  35502.000000  0   -1564055.771    835990.909  -6663317.466
10 0 59456  35622.000000  0   -1989097.018   1607470.225  -6403372.906
10 0 59456  35742.000000  0   -2366351.623   2358116.914  -6031680.053
10 0 59456  35862.000000  0   -2689739.069   3074003.628  -5554647.496
10 0 59456  35982.000000  0   -2954335.462   3741681.578  -4980518.890
10 0 59456  36102.000000  0   -3156451.395   4348434.504  -4319242.423
10 0 59456  36222.000000  0   -3293685.880   4882525.033  -3582307.953
10 0 59456  36342.000000  0   -3364953.999   5333426.708  -2782555.001
10 0 59456  36462.000000  0   -3370489.379   5692038.516  -1933956.164
10 0 59456  36582.000000  0   -3311820.710   5950878.081  -1051375.448
10 0 59456  36702.000000  0   -3191720.123   6104245.443   -150305.359
10 0 59456  36822.000000  0   -3014127.576   6148352.950    753408.980
10 0 59456  36942.000000  0   -2784051.184   6081420.057   1643857.830
10 0 59456  37062.000000  0   -2507442.438   5903725.164   2505358.100
10 0 59456  37182.000000  0   -2191052.951   5617614.243   3322738.196
10 0 59456  37302.000000  0   -1842277.372   5227468.493   4081611.198
10 0 59456  37422.000000  0   -1468985.829   4739631.901   4768632.141
10 0 59456  37542.000000  0   -1079349.103   4162300.435   5371734.405
10 0 59456  37662.000000  0    -681661.228   3505375.435   5880339.788
10 0 59456  37782.000000  0    -284165.250   2780285.445   6285540.057
10 0 59456  37902.000000  0     105115.936   1999780.448   6580246.825
10 0 59456  38022.000000  0     478539.738   1177703.791   6759309.914
10 0 59456  38142.000000  0     828992.696    328743.648   6819601.732
10 0 59456  38262.000000  0    1150024.675   -531828.839   6760067.867
10 0 59456  38382.000000  0    1435966.886  -1388433.575   6581745.619
10 0 59456  38502.000000  0    1682032.167  -2225463.093   6287747.221
10 0 59456  38622.000000  0    1884395.627  -3027567.307   5883209.655
10 0 59456  38742.000000  0    2040254.583  -3779937.292   5375209.921
10 0 59456  38862.000000  0    2147866.444  -4468582.046   4772646.218
10 0 59456  38982.000000  0    2206564.585  -5080593.271   4086088.001
10 0 59456  39102.000000  0    2216752.779  -5604395.797   3327595.166
10 0 59456  39222.000000  0    2179874.882  -6029975.607   2510506.875
10 0 59456  39342.000000  0    2098361.996  -6349079.486   1649205.240
10 0 59456  39462.000000  0    1975559.709  -6555381.544    758858.603
99
